STARLINK-31084          
1 58630U 23203N   26068.06230176  .00000119  00000+0  13849-4 0  9998
2 58630  43.0074  74.2277 0001867 288.8241  71.2408 15.27573980123427
FLOCK 4G-11             
1 62629U 25009W   26068.45629261  .00012672  00000+0  47740-3 0  9990
2 62629  97.3964 150.6183 0001611 333.5407  26.5750 15.27220677 63680
